CCSDS_OMM_VERS = 2.0
CREATION_DATE  = 
ORIGINATOR     = 

OBJECT_NAME    = 2026-015A
OBJECT_ID      = 2026-015A
CENTER_NAME    = EARTH
REF_FRAME      = TEME
TIME_SYSTEM    = UTC
MEAN_ELEMENT_THEORY = SGP/SGP4

EPOCH          = 2026-01-25T21:12:11.765664
MEAN_MOTION    = 13.52684380
ECCENTRICITY   = .00047197
INCLINATION    = 89.0000
RA_OF_ASC_NODE = 283.0091
ARG_OF_PERICENTER = 115.4480
MEAN_ANOMALY   = 244.7161

EPHEMERIS_TYPE = 0
CLASSIFICATION_TYPE = U
NORAD_CAT_ID   = 67556
ELEMENT_SET_NO = 999
REV_AT_EPOCH   = 47
BSTAR          = .31320578E-3
MEAN_MOTION_DOT = .22E-5
MEAN_MOTION_DDOT = 0

CCSDS_OMM_VERS = 2.0
CREATION_DATE  = 
ORIGINATOR     = 

OBJECT_NAME    = 2026-015B
OBJECT_ID      = 2026-015B
CENTER_NAME    = EARTH
REF_FRAME      = TEME
TIME_SYSTEM    = UTC
MEAN_ELEMENT_THEORY = SGP/SGP4

EPOCH          = 2026-01-25T22:58:48.164160
MEAN_MOTION    = 13.52660219
ECCENTRICITY   = .00048097
INCLINATION    = 89.0000
RA_OF_ASC_NODE = 283.0019
ARG_OF_PERICENTER = 114.6988
MEAN_ANOMALY   = 245.4665

EPHEMERIS_TYPE = 0
CLASSIFICATION_TYPE = U
NORAD_CAT_ID   = 67557
ELEMENT_SET_NO = 999
REV_AT_EPOCH   = 48
BSTAR          = .22138313E-3
MEAN_MOTION_DOT = .159E-5
MEAN_MOTION_DDOT = 0

CCSDS_OMM_VERS = 2.0
CREATION_DATE  = 
ORIGINATOR     = 

OBJECT_NAME    = ELECTRON R/B
OBJECT_ID      = 2026-015C
CENTER_NAME    = EARTH
REF_FRAME      = TEME
TIME_SYSTEM    = UTC
MEAN_ELEMENT_THEORY = SGP/SGP4

EPOCH          = 2026-01-25T23:49:43.981824
MEAN_MOTION    = 14.84906255
ECCENTRICITY   = .06232135
INCLINATION    = 89.0043
RA_OF_ASC_NODE = 282.8932
ARG_OF_PERICENTER = 257.6506
MEAN_ANOMALY   = 95.4325

EPHEMERIS_TYPE = 0
CLASSIFICATION_TYPE = U
NORAD_CAT_ID   = 67558
ELEMENT_SET_NO = 999
REV_AT_EPOCH   = 53
BSTAR          = .1154646E-2
MEAN_MOTION_DOT = .921948E-2
MEAN_MOTION_DDOT = -.417327E-6

CCSDS_OMM_VERS = 2.0
CREATION_DATE  = 
ORIGINATOR     = 

OBJECT_NAME    = ELECTRON KICK STAGE R/B
OBJECT_ID      = 2026-015D
CENTER_NAME    = EARTH
REF_FRAME      = TEME
TIME_SYSTEM    = UTC
MEAN_ELEMENT_THEORY = SGP/SGP4

EPOCH          = 2026-01-25T23:10:40.127808
MEAN_MOTION    = 14.65466562
ECCENTRICITY   = .05404134
INCLINATION    = 89.0536
RA_OF_ASC_NODE = 282.9269
ARG_OF_PERICENTER = 323.6190
MEAN_ANOMALY   = 32.9388

EPHEMERIS_TYPE = 0
CLASSIFICATION_TYPE = U
NORAD_CAT_ID   = 67559
ELEMENT_SET_NO = 999
REV_AT_EPOCH   = 52
BSTAR          = .14995722E-2
MEAN_MOTION_DOT = .87973E-3
MEAN_MOTION_DDOT = .615926E-6

